[{"OBJECT_NAME":"CINEMA","OBJECT_ID":"2012-048G","EPOCH":"2026-03-09T23:21:38.910528","MEAN_MOTION":15.41758997,"ECCENTRICITY":0.00644529,"INCLINATION":64.645,"RA_OF_ASC_NODE":61.8658,"ARG_OF_PERICENTER":204.5071,"MEAN_ANOMALY":155.2999,"EPHEMERIS_TYPE":0,"CLASSIFICATION_TYPE":"U","NORAD_CAT_ID":38764,"ELEMENT_SET_NO":999,"REV_AT_EPOCH":10191,"BSTAR":0.00076174658,"MEAN_MOTION_DOT":0.0003483,"MEAN_MOTION_DDOT":0},{"OBJECT_NAME":"STARLINK-30454","OBJECT_ID":"2023-147C","EPOCH":"2026-03-09T22:00:01.999584","MEAN_MOTION":15.26731954,"ECCENTRICITY":0.00015591,"INCLINATION":42.9998,"RA_OF_ASC_NODE":323.5081,"ARG_OF_PERICENTER":271.2375,"MEAN_ANOMALY":232.3862,"EPHEMERIS_TYPE":0,"CLASSIFICATION_TYPE":"U","NORAD_CAT_ID":57915,"ELEMENT_SET_NO":999,"REV_AT_EPOCH":578,"BSTAR":-0.00010894842,"MEAN_MOTION_DOT":-3.18e-5,"MEAN_MOTION_DDOT":0}]
